{"type": "FeatureCollection", "features": [ {"type": "Feature", "properties": {"norad_id": 66514, "name": "SENTINEL-6B", "group": "last-30-days", "lat": -29.87153406585328, "lon": 147.53492305444544, "alt_km": 1337.1666140952757, "timestamp": "2025-12-12T18:57:42.884975+00:00", "meta": {"OBJECT_NAME": "SENTINEL-6B", "OBJECT_ID": "2025-264A", "EPOCH": "2025-12-12T06:01:21.430272", "MEAN_MOTION": 12.81479583, "ECCENTRICITY": 0.00078489, "INCLINATION": 66.0385, "RA_OF_ASC_NODE": 163.4531, "ARG_OF_PERICENTER": 270.1768, "MEAN_ANOMALY": 89.8348, "EPHEMERIS_TYPE": 0, "CLASSIFICATION_TYPE": "U", "NORAD_CAT_ID": 66514, "ELEMENT_SET_NO": 999, "REV_AT_EPOCH": 322, "BSTAR": 0.00019742237, "MEAN_MOTION_DOT": -1.5e-07, "MEAN_MOTION_DDOT": 0}, "tle": {"line1": "1 66514U 25264A   25346.25094248 -.00000015  00000+0  19742-3 0  9997", "line2": "2 66514  66.0385 163.4531 0007848 270.1768  89.8348 12.81479583  3228"}}, "geometry": {"type": "Point", "coordinates": [147.53492305444544, -29.87153406585328]}}, {"type": "Feature", "properties": {"norad_id": 66516, "name": "STARLINK-35924", "group": "last-30-days", "lat": 11.738504783373628, "lon": 66.71034356984913, "alt_km": 443.56295041338126, "timestamp": "2025-12-12T18:57:42.884986+00:00", "meta": {"OBJECT_NAME": "STARLINK-35924", "OBJECT_ID": "2025-265A", "EPOCH": "2025-12-12T06:00:00.999648", "MEAN_MOTION": 15.43116483, "ECCENTRICITY": 0.00012528, "INCLINATION": 43.0004, "RA_OF_ASC_NODE": 56.9436, "ARG_OF_PERICENTER": 251.5557, "MEAN_ANOMALY": 4.7897, "EPHEMERIS_TYPE": 0, "CLASSIFICATION_TYPE": "U", "NORAD_CAT_ID": 66516, "ELEMENT_SET_NO": 999, "REV_AT_EPOCH": 489, "BSTAR": -0.058248166, "MEAN_MOTION_DOT": -0.02351276, "MEAN_MOTION_DDOT": 0}, "tle": {"line1": "1 66516U 25265A   25346.25001157 -.02351276  00000+0 -58248-1 0  9990", "line2": "2 66516  43.0004  56.9436 0001252 251.5557   4.7897 15.43116483  4892"}}, "geometry": {"type": "Point", "coordinates": [66.71034356984913, 11.738504783373628]}}, {"type": "Feature", "properties": {"norad_id": 66517, "name": "STARLINK-35937", "group": "last-30-days", "lat": 36.17759989186508, "lon": 105.42075627390166, "alt_km": 410.0626141683888, "timestamp": "2025-12-12T18:57:42.884996+00:00", "meta": {"OBJECT_NAME": "STARLINK-35937", "OBJECT_ID": "2025-265B", "EPOCH": "2025-12-12T06:00:00.999648", "MEAN_MOTION": 15.50549289, "ECCENTRICITY": 0.00014002, "INCLINATION": 43.0003, "RA_OF_ASC_NODE": 56.8815, "ARG_OF_PERICENTER": 268.9208, "MEAN_ANOMALY": 12.8005, "EPHEMERIS_TYPE": 0, "CLASSIFICATION_TYPE": "U", "NORAD_CAT_ID": 66517, "ELEMENT_SET_NO": 999, "REV_AT_EPOCH": 491, "BSTAR": 0.00048702885, "MEAN_MOTION_DOT": 0.00028303, "MEAN_MOTION_DDOT": 0}, "tle": {"line1": "1 66517U 25265B   25346.25001157  .00028303  00000+0  48703-3 0  9996", "line2": "2 66517  43.0003  56.8815 0001400 268.9208  12.8005 15.50549289  4918"}}, "geometry": {"type": "Point", "coordinates": [105.42075627390166, 36.17759989186508]}}, {"type": "Feature", "properties": {"norad_id": 66518, "name": "STARLINK-35962", "group": "last-30-days", "lat": 37.00917491660697, "lon": 107.70914704494155, "alt_km": 410.55091636640464, "timestamp": "2025-12-12T18:57:42.885006+00:00", "meta": {"OBJECT_NAME": "STARLINK-35962", "OBJECT_ID": "2025-265C", "EPOCH": "2025-12-12T06:00:00.999648", "MEAN_MOTION": 15.5065489, "ECCENTRICITY": 0.0002289, "INCLINATION": 42.9999, "RA_OF_ASC_NODE": 56.8767, "ARG_OF_PERICENTER": 266.9099, "MEAN_ANOMALY": 16.7373, "EPHEMERIS_TYPE": 0, "CLASSIFICATION_TYPE": "U", "NORAD_CAT_ID": 66518, "ELEMENT_SET_NO": 999, "REV_AT_EPOCH": 491, "BSTAR": -0.0014257338, "MEAN_MOTION_DOT": -0.0008333, "MEAN_MOTION_DDOT": 0}, "tle": {"line1": "1 66518U 25265C   25346.25001157 -.00083330  00000+0 -14257-2 0  9996", "line2": "2 66518  42.9999  56.8767 0002289 266.9099  16.7373 15.50654890  4915"}}, "geometry": {"type": "Point", "coordinates": [107.70914704494155, 37.00917491660697]}}, {"type": "Feature", "properties": {"norad_id": 66519, "name": "STARLINK-35931", "group": "last-30-days", "lat": 37.72253785580814, "lon": 109.81894433142838, "alt_km": 410.4652786751976, "timestamp": "2025-12-12T18:57:42.885016+00:00", "meta": {"OBJECT_NAME": "STARLINK-35931", "OBJECT_ID": "2025-265D", "EPOCH": "2025-12-12T06:00:00.999648", "MEAN_MOTION": 15.50728592, "ECCENTRICITY": 0.00014077, "INCLINATION": 43.0003, "RA_OF_ASC_NODE": 56.8717, "ARG_OF_PERICENTER": 256.9334, "MEAN_ANOMALY": 28.6261, "EPHEMERIS_TYPE": 0, "CLASSIFICATION_TYPE": "U", "NORAD_CAT_ID": 66519, "ELEMENT_SET_NO": 999, "REV_AT_EPOCH": 491, "BSTAR": -0.0050645997, "MEAN_MOTION_DOT": -0.00288317, "MEAN_MOTION_DDOT": 0}, "tle": {"line1": "1 66519U 25265D   25346.25001157 -.00288317  00000+0 -50646-2 0  9991", "line2": "2 66519  43.0003  56.8717 0001407 256.9334  28.6261 15.50728592  4910"}}, "geometry": {"type": "Point", "coordinates": [109.81894433142838, 37.72253785580814]}}, {"type": "Feature", "properties": {"norad_id": 66520, "name": "STARLINK-35952", "group": "last-30-days", "lat": 34.74509598031661, "lon": 101.82944813864037, "alt_km": 424.39679232751314, "timestamp": "2025-12-12T18:57:42.885026+00:00", "meta": {"OBJECT_NAME": "STARLINK-35952", "OBJECT_ID": "2025-265E", "EPOCH": "2025-12-12T06:00:00.999648", "MEAN_MOTION": 15.48262565, "ECCENTRICITY": 0.00014192, "INCLINATION": 43.0003, "RA_OF_ASC_NODE": 56.8719, "ARG_OF_PERICENTER": 256.1381, "MEAN_ANOMALY": 29.1894, "EPHEMERIS_TYPE": 0, "CLASSIFICATION_TYPE": "U", "NORAD_CAT_ID": 66520, "ELEMENT_SET_NO": 999, "REV_AT_EPOCH": 491, "BSTAR": -0.043013015, "MEAN_MOTION_DOT": -0.02067235, "MEAN_MOTION_DDOT": 0}, "tle": {"line1": "1 66520U 25265E   25346.25001157 -.02067235  00000+0 -43013-1 0  9998", "line2": "2 66520  43.0003  56.8719 0001419 256.1381  29.1894 15.48262565  4919"}}, "geometry": {"type": "Point", "coordinates": [101.82944813864037, 34.74509598031661]}}, {"type": "Feature", "properties": {"norad_id": 66521, "name": "STARLINK-35915", "group": "last-30-days", "lat": 39.086458432648634, "lon": 114.35737571664622, "alt_km": 409.90948838649365, "timestamp": "2025-12-12T18:57:42.885036+00:00", "meta": {"OBJECT_NAME": "STARLINK-35915", "OBJECT_ID": "2025-265F", "EPOCH": "2025-12-12T06:00:00.999648", "MEAN_MOTION": 15.50544805, "ECCENTRICITY": 0.00016751, "INCLINATION": 43.0003, "RA_OF_ASC_NODE": 56.8621, "ARG_OF_PERICENTER": 259.5909, "MEAN_ANOMALY": 29.7942, "EPHEMERIS_TYPE": 0, "CLASSIFICATION_TYPE": "U", "NORAD_CAT_ID": 66521, "ELEMENT_SET_NO": 999, "REV_AT_EPOCH": 491, "BSTAR": 0.00048970691, "MEAN_MOTION_DOT": 0.00028457, "MEAN_MOTION_DDOT": 0}, "tle": {"line1": "1 66521U 25265F   25346.25001157  .00028457  00000+0  48971-3 0  9998", "line2": "2 66521  43.0003  56.8621 0001675 259.5909  29.7942 15.50544805  4912"}}, "geometry": {"type": "Point", "coordinates": [114.35737571664622, 39.086458432648634]}}, {"type": "Feature", "properties": {"norad_id": 66522, "name": "STARLINK-35946", "group": "last-30-days", "lat": 39.69159895415722, "lon": 116.65443557629878, "alt_km": 409.82463462953274, "timestamp": "2025-12-12T18:57:42.885047+00:00", "meta": {"OBJECT_NAME": "STARLINK-35946", "OBJECT_ID": "2025-265G", "EPOCH": "2025-12-12T06:00:00.999648", "MEAN_MOTION": 15.50582792, "ECCENTRICITY": 0.00018548, "INCLINATION": 43.0001, "RA_OF_ASC_NODE": 56.8572, "ARG_OF_PERICENTER": 264.0677, "MEAN_ANOMALY": 27.1251, "EPHEMERIS_TYPE": 0, "CLASSIFICATION_TYPE": "U", "NORAD_CAT_ID": 66522, "ELEMENT_SET_NO": 999, "REV_AT_EPOCH": 491, "BSTAR": 0.00038368141, "MEAN_MOTION_DOT": 0.00022234, "MEAN_MOTION_DDOT": 0}, "tle": {"line1": "1 66522U 25265G   25346.25001157  .00022234  00000+0  38368-3 0  9995", "line2": "2 66522  43.0001  56.8572 0001854 264.0677  27.1251 15.50582792  4910"}}, "geometry": {"type": "Point", "coordinates": [116.65443557629878, 39.69159895415722]}}, {"type": "Feature", "properties": {"norad_id": 66523, "name": "STARLINK-35969", "group": "last-30-days", "lat": 40.28569828837379, "lon": 119.143881301127, "alt_km": 410.97361782404005, "timestamp": "2025-12-12T18:57:42.885057+00:00", "meta": {"OBJECT_NAME": "STARLINK-35969", "OBJECT_ID": "2025-265H", "EPOCH": "2025-12-12T06:00:00.999648", "MEAN_MOTION": 15.50547338, "ECCENTRICITY": 0.0004353, "INCLINATION": 43.0005, "RA_OF_ASC_NODE": 56.8521, "ARG_OF_PERICENTER": 285.3164, "MEAN_ANOMALY": 7.9158, "EPHEMERIS_TYPE": 0, "CLASSIFICATION_TYPE": "U", "NORAD_CAT_ID": 66523, "ELEMENT_SET_NO": 999, "REV_AT_EPOCH": 491, "BSTAR": 0.00046091788, "MEAN_MOTION_DOT": 0.00026767, "MEAN_MOTION_DDOT": 0}, "tle": {"line1": "1 66523U 25265H   25346.25001157  .00026767  00000+0  46092-3 0  9994", "line2": "2 66523  43.0005  56.8521 0004353 285.3164   7.9158 15.50547338  4912"}}, "geometry": {"type": "Point", "coordinates": [119.143881301127, 40.28569828837379]}}, {"type": "Feature", "properties": {"norad_id": 66524, "name": "STARLINK-35687", "group": "last-30-days", "lat": 27.07989542245125, "lon": 87.04020217553257, "alt_km": 437.1551828961692, "timestamp": "2025-12-12T18:57:42.885067+00:00", "meta": {"OBJECT_NAME": "STARLINK-35687", "OBJECT_ID": "2025-265J", "EPOCH": "2025-12-12T06:00:00.999648", "MEAN_MOTION": 15.44128612, "ECCENTRICITY": 0.00010671, "INCLINATION": 43.0007, "RA_OF_ASC_NODE": 56.8883, "ARG_OF_PERICENTER": 266.2124, "MEAN_ANOMALY": 12.3328, "EPHEMERIS_TYPE": 0, "CLASSIFICATION_TYPE": "U", "NORAD_CAT_ID": 66524, "ELEMENT_SET_NO": 999, "REV_AT_EPOCH": 491, "BSTAR": -0.048953541, "MEAN_MOTION_DOT": -0.02040358, "MEAN_MOTION_DDOT": 0}, "tle": {"line1": "1 66524U 25265J   25346.25001157 -.02040358  00000+0 -48954-1 0  9998", "line2": "2 66524  43.0007  56.8883 0001067 266.2124  12.3328 15.44128612  4911"}}, "geometry": {"type": "Point", "coordinates": [87.04020217553257, 27.07989542245125]}}]}